CUBEBEL-1 (BSUSAT-1)    
1 43666U 18083E   21277.83788421  .00003256  00000-0  15493-3 0  9996
2 43666  97.4503 304.8184 0015499 142.7160  31.5875 15.19781521162628
CICERO 10               
1 43690U 18088A   21277.29826002  .00002636  00000-0  11466-3 0  9993
2 43690  85.0347 125.8471 0015071  19.1049 341.0755 15.21639941160774
IRVINE01                
1 43693U 18088D   21277.85904468  .00007417  00000-0  27977-3 0  9997
2 43693  85.0307 122.1952 0015420 348.3051  11.7832 15.26744800161128
PROXIMA I               
1 43694U 18088E   21277.86792156  .00002570  00000-0  10610-3 0  9999
2 43694  85.0284 122.8051 0017734 344.2449  15.8239 15.23354377161035
PROXIMA II              
1 43696U 18088G   21277.07815138  .00002604  00000-0  10754-3 0  9997
2 43696  85.0289 123.3399 0017897 347.1905  12.8880 15.23346157160903
FACSAT-1                
1 43721U 18096C   21277.81337071  .00006249  00000-0  21966-3 0  9998
2 43721  97.3778 354.1243 0015179 240.1159 260.1956 15.29623852158834
CENTAURI-2              
1 43722U 18096D   21277.47544494  .00007333  00000-0  24700-3 0  9994
2 43722  97.3816 354.8265 0014747 239.4433 120.5353 15.30953180158837
INNOSAT-2               
1 43738U 18096V   21277.85330563  .00012613  00000-0  37216-3 0  9996
2 43738  97.3880 359.6848 0019331 236.6963 217.8137 15.34942148159170
SIRION PATHFINDER-2     
1 43759U 18099B   21277.85084024  .00000483  00000-0  48517-4 0  9999
2 43759  97.6544 345.9807 0015040  42.1555 318.0820 14.95619010154832
CORVUS BC4              
1 43767U 18099K   21277.83775540  .00000242  00000-0  27256-4 0  9996
2 43767  97.6515 344.8244 0012736  47.9005 312.3296 14.95038525154777
MOVE-II                 
1 43780U 18099Y   21277.43452247  .00000966  00000-0  90726-4 0  9998
2 43780  97.6579 345.8349 0014486  53.6792 306.5765 14.96139134154764
SPACEBEE-7              
1 43816U 18099BL  21277.43255578  .00000841  00000-0  79346-4 0  9993
2 43816  97.6596 346.4809 0014162  38.7998 321.4238 14.96306131154353
SPACEBEE-5              
1 43817U 18099BM  21277.67549029  .00003390  00000-0  29330-3 0  9996
2 43817  97.6694 348.3345 0013222  38.4207 321.7954 14.97767478154450
SPACEBEE-6              
1 43818U 18099BN  21277.63492204  .00001255  00000-0  11460-3 0  9998
2 43818  97.6626 347.1716 0013974  37.5094 322.7100 14.96748909154555
SHIELDS 1               
1 43850U 18104B   21277.59773654  .00001681  00000-0  71475-4 0  9993
2 43850  85.0313 221.6921 0016646 121.9364 238.3500 15.22086613155572
STF-1                   
1 43852U 18104D   21277.84581310  .00004162  00000-0  17525-3 0  9991
2 43852  85.0348 222.1748 0015774 132.6231 227.6345 15.22927609155609
ZACUBE-2                
1 43907U 18111AH  21277.87933050  .00002052  00000-0  83526-4 0  9996
2 43907  97.2168 168.2683 0019239 266.3281 160.0659 15.25458202154319
LUME 1                  
1 43908U 18111AJ  21277.73851133  .00003166  00000-0  12269-3 0  9995
2 43908  97.2182 168.8957 0018273 263.6180  96.2979 15.26714419154345
AOBA VELOX-IV           
1 43940U 19003J   21277.55761467  .00007366  00000-0  26785-3 0  9996
2 43940  97.1676 317.5438 0021091 345.8661  14.1986 15.28328571150967
UNITE                   
1 44031U 98067PX  21277.75652802  .00348273  63351-4  61820-3 0  9995
2 44031  51.6338  53.6521 0007040 320.3040  39.7455 16.01276059153026
RAAVANA-1               
1 44329U 98067QE  21275.68501001  .04382427  12114-4  10133-2 0  9993
2 44329  51.6173  82.5337 0011342 297.1206  62.8659 16.28919678131203
UGUISU                  
1 44330U 98067QF  21277.46916086  .01649594  11801-4  95953-3 0  9990
2 44330  51.6157  74.8189 0011609 305.7149  54.2788 16.17914968131443
NEPALISAT-1             
1 44331U 98067QG  21276.62883248  .04661449  12168-4  92832-3 0  9997
2 44331  51.6158  77.4534 0011442 302.2343  57.7570 16.30483242131348
SPOOQY-1                
1 44332U 98067QH  21277.71477664  .00580212  17628-3  73638-3 0  9992
2 44332  51.6220  75.0866 0008050 321.2352  38.8082 16.06758795131432
SPACEBEE-9              
1 44370U 19037F   21277.51534656  .00104155  00000-0  91611-3 0  9999
2 44370  44.9939 312.0724 0006478  73.9872 286.1740 15.67752027128234
MOVE-IIB                
1 44398U 19038N   21277.83223379  .00005316  00000-0  29288-3 0  9992
2 44398  97.5925 241.4517 0022474 294.8914  64.9984 15.14234285124313
SONATE                  
1 44400U 19038Q   21277.86055504  .00002062  00000-0  12062-3 0  9999
2 44400  97.6006 241.2518 0023592 295.7267  64.1532 15.12793811124279
LUCKY-7                 
1 44406U 19038W   21277.70136893  .00002419  00000-0  13910-3 0  9998
2 44406  97.6023 241.3977 0022472 294.6031  65.2859 15.13248025124263
BEESAT 9                
1 44412U 19038AC  21277.69371629  .00002866  00000-0  16229-3 0  9993
2 44412  97.6002 241.4515 0020370 300.5392  59.3829 15.13681028123970
JAISAT-1                
1 44419U 19038F   21277.69459016  .00002908  00000-0  16251-3 0  9999
2 44419  97.6006 242.0865 0019240 298.2829  61.6461 15.14166900124324
KRAKSAT                 
1 44427U 98067QM  21277.90199638  .00073363  00000-0  48025-3 0  9999
2 44427  51.6390 101.3241 0003109 270.3567 231.1426 15.75117581128676
VCC A                   
1 44428U 98067QN  21277.63446916  .00384562  73463-4  75820-3 0  9990
2 44428  51.6275  81.5272 0007986 294.9565  65.0615 15.99426342128914
VCC B                   
1 44431U 98067QR  21277.85567579  .00636261  20820-3  87280-3 0  9994
2 44431  51.6194  78.3166 0009470 298.1369  61.8686 16.05484586128916
DUCHIFAT-3              
1 44854U 19089C   21277.86047131  .00001400  00000-0  11769-3 0  9993
2 44854  36.9667 173.5527 0009522 303.0766  56.9081 14.99668136 99535
EYESAT-NANO             
1 44877U 19092E   21277.76126542  .00003422  00000-0  16888-3 0  9998
2 44877  97.4624  99.8980 0013240 162.6594 197.5095 15.18499914 99522
ORBITAL FACTORY 2 (OF-2)
1 45113U 19071C   21277.56441355  .00007681  00000-0  22049-3 0  9996
2 45113  51.6405 228.1282 0011063 332.5777  27.4622 15.36788450 93942
M2 PATHFINDER           
1 45727U 20037E   21277.44187639  .00000890  00000-0  94476-4 0  9999
2 45727  97.7212  92.9430 0013064 160.6177 199.5527 14.91460217 68663
NETSAT-4                
1 46504U 20068U   21277.87671474  .00000919  00000-0  74162-4 0  9991
2 46504  97.6977 213.8605 0015553 104.0831 256.2109 15.02256554 55669
NETSAT-3                
1 46505U 20068V   21277.55313531  .00001142  00000-0  91089-4 0  9990
2 46505  97.6969 213.4910 0014117 117.5135 242.7547 15.02229953 55622
NETSAT-1                
1 46506U 20068W   21277.56226239  .00001516  00000-0  11959-3 0  9992
2 46506  97.6942 213.4565 0011118 131.2370 228.9819 15.02196617 55620
NETSAT-2                
1 46507U 20068X   21277.56773258  .00001863  00000-0  14606-3 0  9998
2 46507  97.6924 213.4554 0009447 139.9649 220.2290 15.02167407 55572
SPOC                    
1 46921U 98067RR  21277.35305783  .00019947  00000-0  27669-3 0  9998
2 46921  51.6406 152.0559 0002699 133.4856 226.6361 15.57037994 51810
BOBCAT-1                
1 46922U 98067RS  21277.14353885  .00032902  00000-0  40058-3 0  9995
2 46922  51.6409 149.9360 0002631 147.7176 212.3979 15.60207310 51786
NEUTRON-1               
1 46923U 98067RT  21277.24919796  .00019589  00000-0  27324-3 0  9993
2 46923  51.6407 152.8589 0002646 142.0406 218.0773 15.56900038 51823
1998-067RU              
1 46924U 98067RU  21277.04858762  .00081252  00000-0  69632-3 0  9991
2 46924  51.6358 143.2218 0003915 190.1570 169.9349 15.68692104 51882
DESCENT                 
1 46927U 98067RX  21277.38261116  .00020892  00000-0  29054-3 0  9999
2 46927  51.6404 152.2454 0002822 158.0885 202.0228 15.56935767 51750
SAI-1 NANOCONNECT-2     
1 47701U 21015C   21277.62040269 -.00000071  00000-0  00000-0 0  9995
2 47701  97.4554 351.3886 0009410 277.2812  82.7587 15.23152140 33234
WARP-01                 
1 47924U 98067SA  21277.03737225  .00027805  00000-0  40884-3 0  9993
2 47924  51.6408 159.6656 0005592 150.3732 209.7577 15.55230323 31675
RSP-01                  
1 47925U 98067SB  21277.39096229  .00021773  00000-0  33209-3 0  9996
2 47925  51.6416 158.2902 0002566 103.7164 256.4113 15.54387461 31707
TAUSAT-1                
1 47926U 98067SC  21277.69126015  .00026935  00000-0  39070-3 0  9994
2 47926  51.6402 155.7875 0003381 101.9920 258.1450 15.55629129 31759
TSURU                   
1 47927U 98067SD  21277.09323718  .00020081  00000-0  31187-3 0  9995
2 47927  51.6415 160.0518 0002565  98.2761 261.8521 15.53944422 31654
STARS-EC                
1 47928U 98067SE  21277.36684343  .00030168  00000-0  44141-3 0  9991
2 47928  51.6410 158.1189 0006203 155.3145 204.8144 15.55316188 31681
MAYA-2                  
1 47929U 98067SF  21277.08939168  .00020228  00000-0  31387-3 0  9993
2 47929  51.6419 160.0251 0002602  94.8318 265.2969 15.53963481 31612
HIROGARI (OPUSAT-II)    
1 47930U 98067SG  21277.89618561  .00028826  00000-0  41269-3 0  9997
2 47930  51.6409 154.9174 0002385 107.7691 252.3560 15.55949625 31794
GUARANISAT-1            
1 47931U 98067SH  21277.08742290  .00020327  00000-0  31506-3 0  9997
2 47931  51.6419 160.0149 0002616  94.3424 265.7866 15.53990419 31655
SMOG-1                  
1 47964U 21022AJ  21277.44448945  .00002261  00000-0  15306-3 0  9997
2 47964  97.5461 177.7489 0018097 295.9459  63.9904 15.07388727 28295
MMSATS-1                
1 47976U 98067SJ  21277.96038292  .00008334  00000-0  14912-3 0  9999
2 47976  51.6458 158.3047 0003459 128.1415 231.9893 15.50895911 30535
BCCSAT-1                
1 48041U 21022AK  21277.78015212  .00001939  00000-0  13409-3 0  9991
2 48041  97.5471 177.9414 0014298 292.3259  67.6452 15.06816680 28316
RAMSAT                  
1 48850U 98067SL  21277.27387357  .00013328  00000-0  22917-3 0  9997
2 48850  51.6421 161.9772 0004649 174.1308 185.9737 15.51438972 17391
